[{"OBJECT_NAME":"STARLINK-1300","OBJECT_ID":"2020-019Q","EPOCH":"2025-07-31T19:50:42.933120","MEAN_MOTION":15.06392738,"ECCENTRICITY":0.000159,"INCLINATION":53.0536,"RA_OF_ASC_NODE":78.1081,"ARG_OF_PERICENTER":78.4755,"MEAN_ANOMALY":281.6412,"EPHEMERIS_TYPE":0,"CLASSIFICATION_TYPE":"U","NORAD_CAT_ID":45374,"ELEMENT_SET_NO":999,"REV_AT_EPOCH":29644,"BSTAR":7.6208e-5,"MEAN_MOTION_DOT":8.54e-6,"MEAN_MOTION_DDOT":0},{"OBJECT_NAME":"STARLINK-1302","OBJECT_ID":"2020-019R","EPOCH":"2025-07-31T20:11:57.057504","MEAN_MOTION":15.06398672,"ECCENTRICITY":0.0001316,"INCLINATION":53.0549,"RA_OF_ASC_NODE":78.043,"ARG_OF_PERICENTER":99.6661,"MEAN_ANOMALY":260.4476,"EPHEMERIS_TYPE":0,"CLASSIFICATION_TYPE":"U","NORAD_CAT_ID":45375,"ELEMENT_SET_NO":999,"REV_AT_EPOCH":29644,"BSTAR":0.00011768,"MEAN_MOTION_DOT":1.472e-5,"MEAN_MOTION_DDOT":0},{"OBJECT_NAME":"STARLINK-1304","OBJECT_ID":"2020-019S","EPOCH":"2025-07-31T20:38:28.707072","MEAN_MOTION":15.06399342,"ECCENTRICITY":0.0001262,"INCLINATION":53.0545,"RA_OF_ASC_NODE":77.9596,"ARG_OF_PERICENTER":71.5009,"MEAN_ANOMALY":288.6117,"EPHEMERIS_TYPE":0,"CLASSIFICATION_TYPE":"U","NORAD_CAT_ID":45376,"ELEMENT_SET_NO":999,"REV_AT_EPOCH":29644,"BSTAR":-2.0686e-5,"MEAN_MOTION_DOT":-5.89e-6,"MEAN_MOTION_DDOT":0},{"OBJECT_NAME":"STARLINK-1305","OBJECT_ID":"2020-019T","EPOCH":"2025-07-31T08:31:20.263296","MEAN_MOTION":15.06400942,"ECCENTRICITY":0.0001268,"INCLINATION":53.0529,"RA_OF_ASC_NODE":80.2274,"ARG_OF_PERICENTER":93.0966,"MEAN_ANOMALY":267.0168,"EPHEMERIS_TYPE":0,"CLASSIFICATION_TYPE":"U","NORAD_CAT_ID":45377,"ELEMENT_SET_NO":999,"REV_AT_EPOCH":29637,"BSTAR":0.00042579,"MEAN_MOTION_DOT":6.066e-5,"MEAN_MOTION_DDOT":0},{"OBJECT_NAME":"STARLINK-1319","OBJECT_ID":"2020-019V","EPOCH":"2025-07-31T21:05:01.344192","MEAN_MOTION":15.06393437,"ECCENTRICITY":0.0002035,"INCLINATION":53.054,"RA_OF_ASC_NODE":77.88,"ARG_OF_PERICENTER":83.7025,"MEAN_ANOMALY":276.4196,"EPHEMERIS_TYPE":0,"CLASSIFICATION_TYPE":"U","NORAD_CAT_ID":45379,"ELEMENT_SET_NO":999,"REV_AT_EPOCH":29645,"BSTAR":-0.00031201,"MEAN_MOTION_DOT":-4.925e-5,"MEAN_MOTION_DDOT":0},{"OBJECT_NAME":"STARLINK-1258","OBJECT_ID":"2020-019X","EPOCH":"2025-07-31T22:00:01.999584","MEAN_MOTION":15.72722123,"ECCENTRICITY":0.0005995,"INCLINATION":53.0505,"RA_OF_ASC_NODE":31.363,"ARG_OF_PERICENTER":221.8513,"MEAN_ANOMALY":312.3215,"EPHEMERIS_TYPE":0,"CLASSIFICATION_TYPE":"U","NORAD_CAT_ID":45381,"ELEMENT_SET_NO":999,"REV_AT_EPOCH":29709,"BSTAR":0.0017082,"MEAN_MOTION_DOT":0.00241357,"MEAN_MOTION_DDOT":0},{"OBJECT_NAME":"STARLINK-1266","OBJECT_ID":"2020-019Z","EPOCH":"2025-07-31T21:07:40.677888","MEAN_MOTION":15.06393445,"ECCENTRICITY":0.0001249,"INCLINATION":53.0546,"RA_OF_ASC_NODE":57.8727,"ARG_OF_PERICENTER":91.4237,"MEAN_ANOMALY":268.6895,"EPHEMERIS_TYPE":0,"CLASSIFICATION_TYPE":"U","NORAD_CAT_ID":45383,"ELEMENT_SET_NO":999,"REV_AT_EPOCH":29672,"BSTAR":3.8079e-5,"MEAN_MOTION_DOT":2.86e-6,"MEAN_MOTION_DDOT":0},{"OBJECT_NAME":"STARLINK-1267","OBJECT_ID":"2020-019AA","EPOCH":"2025-07-31T20:46:33.342816","MEAN_MOTION":15.06400665,"ECCENTRICITY":0.0001259,"INCLINATION":53.0545,"RA_OF_ASC_NODE":58.5929,"ARG_OF_PERICENTER":83.1935,"MEAN_ANOMALY":276.9197,"EPHEMERIS_TYPE":0,"CLASSIFICATION_TYPE":"U","NORAD_CAT_ID":45384,"ELEMENT_SET_NO":999,"REV_AT_EPOCH":29671,"BSTAR":6.6703e-6,"MEAN_MOTION_DOT":-1.82e-6,"MEAN_MOTION_DDOT":0},{"OBJECT_NAME":"STARLINK-1272","OBJECT_ID":"2020-019AC","EPOCH":"2025-07-31T20:57:03.942720","MEAN_MOTION":15.06393089,"ECCENTRICITY":0.0001305,"INCLINATION":53.0564,"RA_OF_ASC_NODE":57.9062,"ARG_OF_PERICENTER":80.1981,"MEAN_ANOMALY":279.9155,"EPHEMERIS_TYPE":0,"CLASSIFICATION_TYPE":"U","NORAD_CAT_ID":45386,"ELEMENT_SET_NO":999,"REV_AT_EPOCH":29672,"BSTAR":2.4477e-5,"MEAN_MOTION_DOT":8.3e-7,"MEAN_MOTION_DDOT":0},{"OBJECT_NAME":"STARLINK-1274","OBJECT_ID":"2020-019AD","EPOCH":"2025-07-31T00:21:07.098336","MEAN_MOTION":15.20845476,"ECCENTRICITY":0.0002043,"INCLINATION":53.0571,"RA_OF_ASC_NODE":58.7884,"ARG_OF_PERICENTER":184.3854,"MEAN_ANOMALY":175.7124,"EPHEMERIS_TYPE":0,"CLASSIFICATION_TYPE":"U","NORAD_CAT_ID":45387,"ELEMENT_SET_NO":999,"REV_AT_EPOCH":29663,"BSTAR":0.0020864,"MEAN_MOTION_DOT":0.00046614,"MEAN_MOTION_DDOT":0},{"OBJECT_NAME":"STARLINK-1280","OBJECT_ID":"2020-019AE","EPOCH":"2025-07-31T20:43:47.431488","MEAN_MOTION":15.06395255,"ECCENTRICITY":0.0001831,"INCLINATION":53.0562,"RA_OF_ASC_NODE":77.9464,"ARG_OF_PERICENTER":114.5136,"MEAN_ANOMALY":245.6044,"EPHEMERIS_TYPE":0,"CLASSIFICATION_TYPE":"U","NORAD_CAT_ID":45388,"ELEMENT_SET_NO":999,"REV_AT_EPOCH":29644,"BSTAR":-1.4877e-5,"MEAN_MOTION_DOT":-5.03e-6,"MEAN_MOTION_DDOT":0},{"OBJECT_NAME":"STARLINK-1283","OBJECT_ID":"2020-019AF","EPOCH":"2025-07-31T20:14:35.449440","MEAN_MOTION":15.06397555,"ECCENTRICITY":0.0001206,"INCLINATION":53.0547,"RA_OF_ASC_NODE":58.0337,"ARG_OF_PERICENTER":91.1457,"MEAN_ANOMALY":268.967,"EPHEMERIS_TYPE":0,"CLASSIFICATION_TYPE":"U","NORAD_CAT_ID":45389,"ELEMENT_SET_NO":999,"REV_AT_EPOCH":29672,"BSTAR":5.5953e-6,"MEAN_MOTION_DOT":-1.98e-6,"MEAN_MOTION_DDOT":0},{"OBJECT_NAME":"STARLINK-1284","OBJECT_ID":"2020-019AG","EPOCH":"2025-07-31T21:12:58.440672","MEAN_MOTION":15.06390132,"ECCENTRICITY":0.0001228,"INCLINATION":53.0538,"RA_OF_ASC_NODE":57.8537,"ARG_OF_PERICENTER":104.1167,"MEAN_ANOMALY":255.9959,"EPHEMERIS_TYPE":0,"CLASSIFICATION_TYPE":"U","NORAD_CAT_ID":45390,"ELEMENT_SET_NO":999,"REV_AT_EPOCH":29672,"BSTAR":-5.1025e-5,"MEAN_MOTION_DOT":-1.041e-5,"MEAN_MOTION_DDOT":0},{"OBJECT_NAME":"STARLINK-1292","OBJECT_ID":"2020-019AL","EPOCH":"2025-07-30T20:40:03.108576","MEAN_MOTION":15.52531902,"ECCENTRICITY":0.0001526,"INCLINATION":53.0551,"RA_OF_ASC_NODE":55.7289,"ARG_OF_PERICENTER":204.4002,"MEAN_ANOMALY":155.6935,"EPHEMERIS_TYPE":0,"CLASSIFICATION_TYPE":"U","NORAD_CAT_ID":45394,"ELEMENT_SET_NO":999,"REV_AT_EPOCH":29640,"BSTAR":0.002231,"MEAN_MOTION_DOT":0.00141244,"MEAN_MOTION_DDOT":0},{"OBJECT_NAME":"STARLINK-1297","OBJECT_ID":"2020-019AM","EPOCH":"2025-07-31T20:30:31.197600","MEAN_MOTION":15.06397584,"ECCENTRICITY":0.0001345,"INCLINATION":53.054,"RA_OF_ASC_NODE":57.9854,"ARG_OF_PERICENTER":87.0079,"MEAN_ANOMALY":273.1064,"EPHEMERIS_TYPE":0,"CLASSIFICATION_TYPE":"U","NORAD_CAT_ID":45395,"ELEMENT_SET_NO":999,"REV_AT_EPOCH":29648,"BSTAR":0.00013835,"MEAN_MOTION_DOT":1.78e-5,"MEAN_MOTION_DDOT":0},{"OBJECT_NAME":"STARLINK-1307","OBJECT_ID":"2020-019AP","EPOCH":"2025-07-31T18:44:21.405984","MEAN_MOTION":15.06399022,"ECCENTRICITY":0.0001645,"INCLINATION":53.0538,"RA_OF_ASC_NODE":58.3118,"ARG_OF_PERICENTER":104.7133,"MEAN_ANOMALY":255.4038,"EPHEMERIS_TYPE":0,"CLASSIFICATION_TYPE":"U","NORAD_CAT_ID":45397,"ELEMENT_SET_NO":999,"REV_AT_EPOCH":29653,"BSTAR":4.7509e-5,"MEAN_MOTION_DOT":4.26e-6,"MEAN_MOTION_DDOT":0},{"OBJECT_NAME":"STARLINK-1312","OBJECT_ID":"2020-019AQ","EPOCH":"2025-07-31T22:00:01.999584","MEAN_MOTION":15.53880242,"ECCENTRICITY":0.0002699,"INCLINATION":53.0556,"RA_OF_ASC_NODE":49.615,"ARG_OF_PERICENTER":209.6569,"MEAN_ANOMALY":20.7809,"EPHEMERIS_TYPE":0,"CLASSIFICATION_TYPE":"U","NORAD_CAT_ID":45398,"ELEMENT_SET_NO":999,"REV_AT_EPOCH":29659,"BSTAR":0.0025279,"MEAN_MOTION_DOT":0.00168723,"MEAN_MOTION_DDOT":0}]
