STARLINK-1300           
1 45374U 20019Q   25212.82688580  .00000854  00000+0  76208-4 0  9995
2 45374  53.0536  78.1081 0001590  78.4755 281.6412 15.06392738296446
STARLINK-1302           
1 45375U 20019R   25212.84163261  .00001472  00000+0  11768-3 0  9998
2 45375  53.0549  78.0430 0001316  99.6661 260.4476 15.06398672296443
STARLINK-1304           
1 45376U 20019S   25212.86005448 -.00000589  00000+0 -20686-4 0  9993
2 45376  53.0545  77.9596 0001262  71.5009 288.6117 15.06399342296445
STARLINK-1305           
1 45377U 20019T   25212.35509564  .00006066  00000+0  42579-3 0  9994
2 45377  53.0529  80.2274 0001268  93.0966 267.0168 15.06400942296373
STARLINK-1319           
1 45379U 20019V   25212.87848778 -.00004925  00000+0 -31201-3 0  9990
2 45379  53.0540  77.8800 0002035  83.7025 276.4196 15.06393437296454
STARLINK-1258           
1 45381U 20019X   25212.91668981  .00241357  00000+0  17082-2 0  9994
2 45381  53.0505  31.3630 0005995 221.8513 312.3215 15.72722123297093
STARLINK-1266           
1 45383U 20019Z   25212.88033192  .00000286  00000+0  38079-4 0  9997
2 45383  53.0546  57.8727 0001249  91.4237 268.6895 15.06393445296726
STARLINK-1267           
1 45384U 20019AA  25212.86566369 -.00000182  00000+0  66703-5 0  9995
2 45384  53.0545  58.5929 0001259  83.1935 276.9197 15.06400665296711
STARLINK-1272           
1 45386U 20019AC  25212.87296230  .00000083  00000+0  24477-4 0  9995
2 45386  53.0564  57.9062 0001305  80.1981 279.9155 15.06393089296724
STARLINK-1274           
1 45387U 20019AD  25212.01466549  .00046614  00000+0  20864-2 0  9998
2 45387  53.0571  58.7884 0002043 184.3854 175.7124 15.20845476296637
STARLINK-1280           
1 45388U 20019AE  25212.86374342 -.00000503  00000+0 -14877-4 0  9999
2 45388  53.0562  77.9464 0001831 114.5136 245.6044 15.06395255296443
STARLINK-1283           
1 45389U 20019AF  25212.84346585 -.00000198  00000+0  55953-5 0  9996
2 45389  53.0547  58.0337 0001206  91.1457 268.9670 15.06397555296727
STARLINK-1284           
1 45390U 20019AG  25212.88400973 -.00001041  00000+0 -51025-4 0  9998
2 45390  53.0538  57.8537 0001228 104.1167 255.9959 15.06390132296725
STARLINK-1292           
1 45394U 20019AL  25211.86114709  .00141244  00000+0  22310-2 0  9999
2 45394  53.0551  55.7289 0001526 204.4002 155.6935 15.52531902296406
STARLINK-1297           
1 45395U 20019AM  25212.85452775  .00001780  00000+0  13835-3 0  9991
2 45395  53.0540  57.9854 0001345  87.0079 273.1064 15.06397584296487
STARLINK-1307           
1 45397U 20019AP  25212.78080331  .00000426  00000+0  47509-4 0  9992
2 45397  53.0538  58.3118 0001645 104.7133 255.4038 15.06399022296534
STARLINK-1312           
1 45398U 20019AQ  25212.91668981  .00168723  00000+0  25279-2 0  9994
2 45398  53.0556  49.6150 0002699 209.6569  20.7809 15.53880242296598
